{"type": "FeatureCollection", "features": [ {"type": "Feature", "properties": {"norad_id": 35777, "name": "COSMOS 2251 DEB", "group": "cosmos-2251-debris", "lat": 1.0433211608459034, "lon": 118.36392092001256, "alt_km": 776.0040700432392, "timestamp": "2025-12-27T19:21:59.141603+00:00", "meta": {"OBJECT_NAME": "COSMOS 2251 DEB", "OBJECT_ID": "1993-036ARX", "EPOCH": "2025-12-24T14:23:44.831616", "MEAN_MOTION": 13.413075, "ECCENTRICITY": 0.04517519, "INCLINATION": 73.7706, "RA_OF_ASC_NODE": 303.7897, "ARG_OF_PERICENTER": 196.885, "MEAN_ANOMALY": 342.3935, "EPHEMERIS_TYPE": 0, "CLASSIFICATION_TYPE": "U", "NORAD_CAT_ID": 35777, "ELEMENT_SET_NO": 999, "REV_AT_EPOCH": 79843, "BSTAR": 0.00021081744, "MEAN_MOTION_DOT": 1.91e-06, "MEAN_MOTION_DDOT": 0}, "tle": {"line1": "1 35777U 93036ARX 25358.59982444  .00000191  00000+0  21082-3 0  9994", "line2": "2 35777  73.7706 303.7897 0451751 196.8850 342.3935 13.41307500798432"}}, "geometry": {"type": "Point", "coordinates": [118.36392092001256, 1.0433211608459034]}}, {"type": "Feature", "properties": {"norad_id": 35784, "name": "COSMOS 2251 DEB", "group": "cosmos-2251-debris", "lat": 13.518059657718847, "lon": -122.53049001094914, "alt_km": 699.2299793621851, "timestamp": "2025-12-27T19:21:59.141612+00:00", "meta": {"OBJECT_NAME": "COSMOS 2251 DEB", "OBJECT_ID": "1993-036ASE", "EPOCH": "2025-12-26T11:08:36.772800", "MEAN_MOTION": 14.50074118, "ECCENTRICITY": 0.0041168, "INCLINATION": 74.0381, "RA_OF_ASC_NODE": 63.9353, "ARG_OF_PERICENTER": 191.9946, "MEAN_ANOMALY": 168.0239, "EPHEMERIS_TYPE": 0, "CLASSIFICATION_TYPE": "U", "NORAD_CAT_ID": 35784, "ELEMENT_SET_NO": 999, "REV_AT_EPOCH": 65905, "BSTAR": 0.00028968, "MEAN_MOTION_DOT": 1.108e-05, "MEAN_MOTION_DDOT": 0}, "tle": {"line1": "1 35784U 93036ASE 25360.46431450  .00001108  00000+0  28968-3 0  9996", "line2": "2 35784  74.0381  63.9353 0041168 191.9946 168.0239 14.50074118659055"}}, "geometry": {"type": "Point", "coordinates": [-122.53049001094914, 13.518059657718847]}}, {"type": "Feature", "properties": {"norad_id": 35786, "name": "COSMOS 2251 DEB", "group": "cosmos-2251-debris", "lat": -60.590828082600254, "lon": -134.7433195543579, "alt_km": 685.2307401983253, "timestamp": "2025-12-27T19:21:59.141621+00:00", "meta": {"OBJECT_NAME": "COSMOS 2251 DEB", "OBJECT_ID": "1993-036ASG", "EPOCH": "2025-12-26T01:19:16.036608", "MEAN_MOTION": 14.66353494, "ECCENTRICITY": 0.00330564, "INCLINATION": 74.0139, "RA_OF_ASC_NODE": 18.068, "ARG_OF_PERICENTER": 144.2742, "MEAN_ANOMALY": 216.0648, "EPHEMERIS_TYPE": 0, "CLASSIFICATION_TYPE": "U", "NORAD_CAT_ID": 35786, "ELEMENT_SET_NO": 999, "REV_AT_EPOCH": 73603, "BSTAR": 0.00088717905, "MEAN_MOTION_DOT": 4.912e-05, "MEAN_MOTION_DDOT": 0}, "tle": {"line1": "1 35786U 93036ASG 25360.05504672  .00004912  00000+0  88718-3 0  9995", "line2": "2 35786  74.0139  18.0680 0033056 144.2742 216.0648 14.66353494736030"}}, "geometry": {"type": "Point", "coordinates": [-134.7433195543579, -60.590828082600254]}}, {"type": "Feature", "properties": {"norad_id": 35789, "name": "COSMOS 2251 DEB", "group": "cosmos-2251-debris", "lat": 73.10359463467566, "lon": 6.289149402305307, "alt_km": 772.0063413763501, "timestamp": "2025-12-27T19:21:59.141630+00:00", "meta": {"OBJECT_NAME": "COSMOS 2251 DEB", "OBJECT_ID": "1993-036ASK", "EPOCH": "2025-12-25T00:02:45.656448", "MEAN_MOTION": 14.35995111, "ECCENTRICITY": 0.00478637, "INCLINATION": 74.0386, "RA_OF_ASC_NODE": 261.8623, "ARG_OF_PERICENTER": 358.287, "MEAN_ANOMALY": 1.8111, "EPHEMERIS_TYPE": 0, "CLASSIFICATION_TYPE": "U", "NORAD_CAT_ID": 35789, "ELEMENT_SET_NO": 999, "REV_AT_EPOCH": 61403, "BSTAR": 0.00012355223, "MEAN_MOTION_DOT": 3.37e-06, "MEAN_MOTION_DDOT": 0}, "tle": {"line1": "1 35789U 93036ASK 25359.00191732  .00000337  00000+0  12355-3 0  9991", "line2": "2 35789  74.0386 261.8623 0047863 358.2870   1.8111 14.35995111614036"}}, "geometry": {"type": "Point", "coordinates": [6.289149402305307, 73.10359463467566]}}, {"type": "Feature", "properties": {"norad_id": 35793, "name": "COSMOS 2251 DEB", "group": "cosmos-2251-debris", "lat": -47.29391863281119, "lon": 12.508291292929746, "alt_km": 639.5437033383787, "timestamp": "2025-12-27T19:21:59.141639+00:00", "meta": {"OBJECT_NAME": "COSMOS 2251 DEB", "OBJECT_ID": "1993-036ASP", "EPOCH": "2025-12-22T19:59:17.179008", "MEAN_MOTION": 14.78898886, "ECCENTRICITY": 0.00021779, "INCLINATION": 74.0403, "RA_OF_ASC_NODE": 40.3457, "ARG_OF_PERICENTER": 77.0765, "MEAN_ANOMALY": 40.8773, "EPHEMERIS_TYPE": 0, "CLASSIFICATION_TYPE": "U", "NORAD_CAT_ID": 35793, "ELEMENT_SET_NO": 999, "REV_AT_EPOCH": 65946, "BSTAR": 0.0016902624, "MEAN_MOTION_DOT": 0.0001245, "MEAN_MOTION_DDOT": 0}, "tle": {"line1": "1 35793U 93036ASP 25356.83283772  .00012450  00000+0  16903-2 0  9991", "line2": "2 35793  74.0403  40.3457 0002177  77.0765  40.8773 14.78898886659465"}}, "geometry": {"type": "Point", "coordinates": [12.508291292929746, -47.29391863281119]}}, {"type": "Feature", "properties": {"norad_id": 35824, "name": "COSMOS 2251 DEB", "group": "cosmos-2251-debris", "lat": 63.028747296088696, "lon": 168.17453180091476, "alt_km": 747.3322391576994, "timestamp": "2025-12-27T19:21:59.141648+00:00", "meta": {"OBJECT_NAME": "COSMOS 2251 DEB", "OBJECT_ID": "1993-036ASW", "EPOCH": "2025-12-22T19:31:45.102144", "MEAN_MOTION": 13.88451582, "ECCENTRICITY": 0.02474981, "INCLINATION": 73.8455, "RA_OF_ASC_NODE": 31.474, "ARG_OF_PERICENTER": 115.7236, "MEAN_ANOMALY": 246.9666, "EPHEMERIS_TYPE": 0, "CLASSIFICATION_TYPE": "U", "NORAD_CAT_ID": 35824, "ELEMENT_SET_NO": 999, "REV_AT_EPOCH": 84367, "BSTAR": 0.00094378544, "MEAN_MOTION_DOT": 1.423e-05, "MEAN_MOTION_DDOT": 0}, "tle": {"line1": "1 35824U 93036ASW 25356.81371646  .00001423  00000+0  94379-3 0  9994", "line2": "2 35824  73.8455  31.4740 0247498 115.7236 246.9666 13.88451582843676"}}, "geometry": {"type": "Point", "coordinates": [168.17453180091476, 63.028747296088696]}}, {"type": "Feature", "properties": {"norad_id": 35825, "name": "COSMOS 2251 DEB", "group": "cosmos-2251-debris", "lat": -72.9266590367751, "lon": 5.88609248375299, "alt_km": 842.4433494642972, "timestamp": "2025-12-27T19:21:59.141657+00:00", "meta": {"OBJECT_NAME": "COSMOS 2251 DEB", "OBJECT_ID": "1993-036ASX", "EPOCH": "2025-12-14T02:36:29.406816", "MEAN_MOTION": 13.70963524, "ECCENTRICITY": 0.03526119, "INCLINATION": 74.113, "RA_OF_ASC_NODE": 140.3902, "ARG_OF_PERICENTER": 235.9093, "MEAN_ANOMALY": 120.8102, "EPHEMERIS_TYPE": 0, "CLASSIFICATION_TYPE": "U", "NORAD_CAT_ID": 35825, "ELEMENT_SET_NO": 999, "REV_AT_EPOCH": 82527, "BSTAR": 0.0023333684, "MEAN_MOTION_DOT": 3.214e-05, "MEAN_MOTION_DDOT": 0}, "tle": {"line1": "1 35825U 93036ASX 25348.10867369  .00003214  00000+0  23334-2 0  9992", "line2": "2 35825  74.1130 140.3902 0352611 235.9093 120.8102 13.70963524825277"}}, "geometry": {"type": "Point", "coordinates": [5.88609248375299, -72.9266590367751]}}, {"type": "Feature", "properties": {"norad_id": 35829, "name": "COSMOS 2251 DEB", "group": "cosmos-2251-debris", "lat": 71.44807190309773, "lon": -169.3210270026444, "alt_km": 629.1343622501608, "timestamp": "2025-12-27T19:21:59.141665+00:00", "meta": {"OBJECT_NAME": "COSMOS 2251 DEB", "OBJECT_ID": "1993-036ATB", "EPOCH": "2025-12-17T00:21:46.598688", "MEAN_MOTION": 14.76400839, "ECCENTRICITY": 0.0005573, "INCLINATION": 74.0249, "RA_OF_ASC_NODE": 90.4281, "ARG_OF_PERICENTER": 146.0686, "MEAN_ANOMALY": 214.0846, "EPHEMERIS_TYPE": 0, "CLASSIFICATION_TYPE": "U", "NORAD_CAT_ID": 35829, "ELEMENT_SET_NO": 999, "REV_AT_EPOCH": 87838, "BSTAR": 0.001494418, "MEAN_MOTION_DOT": 0.00010373, "MEAN_MOTION_DDOT": 0}, "tle": {"line1": "1 35829U 93036ATB 25351.01512267  .00010373  00000+0  14944-2 0  9995", "line2": "2 35829  74.0249  90.4281 0005573 146.0686 214.0846 14.76400839878381"}}, "geometry": {"type": "Point", "coordinates": [-169.3210270026444, 71.44807190309773]}}, {"type": "Feature", "properties": {"norad_id": 35830, "name": "COSMOS 2251 DEB", "group": "cosmos-2251-debris", "lat": 71.05910057891104, "lon": -63.44674658667476, "alt_km": 853.0562104055234, "timestamp": "2025-12-27T19:21:59.141675+00:00", "meta": {"OBJECT_NAME": "COSMOS 2251 DEB", "OBJECT_ID": "1993-036ATC", "EPOCH": "2025-12-24T23:32:41.332416", "MEAN_MOTION": 14.24062009, "ECCENTRICITY": 0.01214238, "INCLINATION": 73.8614, "RA_OF_ASC_NODE": 244.1574, "ARG_OF_PERICENTER": 210.1431, "MEAN_ANOMALY": 149.2692, "EPHEMERIS_TYPE": 0, "CLASSIFICATION_TYPE": "U", "NORAD_CAT_ID": 35830, "ELEMENT_SET_NO": 999, "REV_AT_EPOCH": 61438, "BSTAR": 0.0012045296, "MEAN_MOTION_DOT": 2.963e-05, "MEAN_MOTION_DDOT": 0}, "tle": {"line1": "1 35830U 93036ATC 25358.98103394  .00002963  00000+0  12045-2 0  9993", "line2": "2 35830  73.8614 244.1574 0121423 210.1431 149.2692 14.24062009614385"}}, "geometry": {"type": "Point", "coordinates": [-63.44674658667476, 71.05910057891104]}}, {"type": "Feature", "properties": {"norad_id": 35834, "name": "COSMOS 2251 DEB", "group": "cosmos-2251-debris", "lat": 38.346885210812935, "lon": -69.09114250486361, "alt_km": 780.2221430461041, "timestamp": "2025-12-27T19:21:59.141684+00:00", "meta": {"OBJECT_NAME": "COSMOS 2251 DEB", "OBJECT_ID": "1993-036ATG", "EPOCH": "2025-12-25T00:59:01.122144", "MEAN_MOTION": 14.12999686, "ECCENTRICITY": 0.01093185, "INCLINATION": 73.934, "RA_OF_ASC_NODE": 282.651, "ARG_OF_PERICENTER": 79.9529, "MEAN_ANOMALY": 296.6913, "EPHEMERIS_TYPE": 0, "CLASSIFICATION_TYPE": "U", "NORAD_CAT_ID": 35834, "ELEMENT_SET_NO": 999, "REV_AT_EPOCH": 66437, "BSTAR": 0.00039327215, "MEAN_MOTION_DOT": 7.52e-06, "MEAN_MOTION_DDOT": 0}, "tle": {"line1": "1 35834U 93036ATG 25359.04098521  .00000752  00000+0  39327-3 0  9997", "line2": "2 35834  73.9340 282.6510 0109318  79.9529 296.6913 14.12999686664375"}}, "geometry": {"type": "Point", "coordinates": [-69.09114250486361, 38.346885210812935]}}]}